{
  "type": "FeatureCollection",
  "features": [
    {
      "type": "Feature",
      "properties": {},
      "geometry": {
        "coordinates": [
          [
            [
              8.99259682978743,
              51.787617604051775
            ],
            [
              8.99259682978743,
              47.90330983444693
            ],
            [
              18.94152188726676,
              47.90330983444693
            ],
            [
              18.94152188726676,
              51.787617604051775
            ],
            [
              8.99259682978743,
              51.787617604051775
            ]
          ]
        ],
        "type": "Polygon"
      }
    }
  ]
}